ZHOU ENLAI              
1 43156U 18008B   21289.15327098  .00003017  00000-0  17681-3 0  9990
2 43156  97.3936 350.2755 0012623 271.2470 173.4142 15.12464568206251
QUANTUTONG 1            
1 43158U 18008D   21289.13706512  .00002332  00000-0  13996-3 0  9996
2 43158  97.3879 348.6573 0011901 273.0652 139.8212 15.11836588206177
S-NET D                 
1 43186U 18014G   21288.72933446  .00000459  00000-0  44705-4 0  9997
2 43186  97.6666 194.0931 0011838  43.2575 316.9574 14.97173058202293
S-NET B                 
1 43187U 18014H   21288.72929950  .00000465  00000-0  45148-4 0  9992
2 43187  97.6662 194.0551 0011836  43.1887 317.0261 14.97172441202291
S-NET A                 
1 43188U 18014J   21288.72944200  .00000463  00000-0  45010-4 0  9994
2 43188  97.6666 194.1055 0011835  43.2889 316.9261 14.97171326202297
S-NET C                 
1 43189U 18014K   21288.72994333  .00000481  00000-0  46535-4 0  9990
2 43189  97.6662 194.0472 0011816  43.2208 316.9939 14.97170768200840
FENGMANIU-1 (FMN-1)     
1 43192U 18015A   21289.19604229  .00010444  00000-0  36906-3 0  9999
2 43192  97.5049  65.3700 0014039 171.5235 311.9211 15.29292951206031
SHAONIAN XING           
1 43199U 18015H   21289.20643582  .00007163  00000-0  26096-3 0  9996
2 43199  97.4825  62.0644 0015221 181.8146 298.8901 15.28400508206081
LUOJIA-1 01             
1 43485U 18048B   21289.19982950  .00000425  00000-0  67664-4 0  9994
2 43485  97.9547   9.2193 0009916 267.6482  92.3608 14.76923423181819
SURFSAT                 
1 43614U 18070B   21288.73216975  .00009656  00000-0  21388-3 0  9996
2 43614  93.0321 356.1765 0010991 251.8954 108.1106 15.43712300173212
CP7 (DAVE)              
1 43615U 18070C   21288.70945225  .00008519  00000-0  19102-3 0  9999
2 43615  93.0324 356.1060 0011216 252.6023 107.4007 15.43352820173197
ELFIN-B                 
1 43616U 18070D   21288.92614047  .00014760  00000-0  28964-3 0  9990
2 43616  93.0277 356.5593 0010820 245.0362 114.9773 15.47241619173383
ELFIN-A                 
1 43617U 18070E   21288.71453378  .00016019  00000-0  30733-3 0  9992
2 43617  93.0328 357.4392 0010336 242.0884 117.9329 15.47896416173376
CZ-4B R/B               
1 43656U 18081B   21289.06353849  .00000042  00000-0  29757-4 0  9992
2 43656  99.3719  38.6091 0209280 126.2522 235.8198 14.30485753155414
CUBEBEL-1 (BSUSAT-1)    
1 43666U 18083E   21289.14374525  .00003767  00000-0  17828-3 0  9990
2 43666  97.4482 315.9771 0016138 106.2449 326.7851 15.19857137164346
CHANGSHAGAOXIN (TY 4-01)
1 43669U 18083H   21289.10287681  .00003590  00000-0  17652-3 0  9994
2 43669  97.4397 312.6436 0012160 102.8655 342.5696 15.18605826164199
TEN-KOH                 
1 43677U 18084G   21288.75693635  .00000575  00000-0  64584-4 0  9991
2 43677  97.9352  52.2093 0015974   3.2770 356.8549 14.90551279161225
DIWATA-2B               
1 43678U 18084H   21289.18922045  .00000685  00000-0  73668-4 0  9995
2 43678  97.9391  55.2017 0010287  21.3939 338.7714 14.91811125161434
STARS-AO                
1 43679U 18084J   21288.63227412  .00001032  00000-0  10585-3 0  9996
2 43679  97.9438  56.0532 0009643  28.4994 331.6750 14.92651172161416
AUTCUBE 2               
1 43681U 18084K   21288.76448912  .00000837  00000-0  87879-4 0  9996
2 43681  97.9402  55.1574 0009846  22.0386 338.1254 14.92197450161354
IRVINE01                
1 43693U 18088D   21288.54193463  .00008687  00000-0  32629-3 0  9990
2 43693  85.0298 115.0753 0014036 305.7145  54.2793 15.26928317162755
ES'HAIL 2               
1 43700U 18090A   21289.08868601  .00000127  00000-0  00000+0 0  9990
2 43700   0.0142 160.6510 0002353  65.2758 216.6293  1.00273309 10823
FACSAT-1                
1 43721U 18096C   21289.18051992  .00007262  00000-0  25357-3 0  9990
2 43721  97.3759   5.4029 0016008 198.3913 219.0643 15.29766350160576
CENTAURI-2              
1 43722U 18096D   21288.65156367  .00007868  00000-0  26323-3 0  9990
2 43722  97.3799   5.9441 0015552 197.9078 162.1617 15.31135579160546
3CAT-1                  
1 43728U 18096K   21289.15667568  .00009439  00000-0  31221-3 0  9991
2 43728  97.3795   7.0860 0015739 199.7414 219.3559 15.31439903160657
INNOSAT-2               
1 43738U 18096V   21289.12924025  .00014562  00000-0  42516-3 0  9995
2 43738  97.3861  10.9818 0019962 195.0751 252.7560 15.35225180160908
REAKTOR HELLO WORLD     
1 43743U 18096AA  21288.66317712  .00004335  00000-0  15379-3 0  9992
2 43743  97.3777   5.2486 0016208 205.3000 154.7448 15.29482059160505
ELYSIUM STAR 2 & LFF    
1 43760U 18099C   21289.08674191  .00002164  00000-0  19461-3 0  9992
2 43760  97.6609 357.9304 0013608  11.1693 348.9828 14.96631143156551
2018-099D               
1 43761U 18099D   21288.93041643  .00000162  00000-0  19778-4 0  9994
2 43761  97.6555 356.8408 0014693  13.9489 346.2137 14.95376386156472
AISTECHSAT 2            
1 43768U 18099L   21288.71669537  .00000571  00000-0  57334-4 0  9999
2 43768  97.6506 355.4003 0011592  14.9250 345.2311 14.95017823156115
FOX-1CLIFF (AO-95)      
1 43770U 18099N   21288.76065578  .00000665  00000-0  65079-4 0  9991
2 43770  97.6539 356.2278 0014930  21.2056 338.9780 14.95478031156437
RANGE-A                 
1 43772U 18099Q   21288.62951542  .00000995  00000-0  94082-4 0  9995
2 43772  97.6633 357.2886 0014170   9.2203 350.9276 14.95824196156426
RANGE-B                 
1 43773U 18099R   21288.70933385  .00000339  00000-0  35807-4 0  9992
2 43773  97.6468 355.3760 0013561   8.9456 351.2004 14.95326770156419
2018-099T               
1 43775U 18099T   21288.70533146  .00000151  00000-0  18806-4 0  9997
2 43775  97.6539 356.3746 0014814  12.5482 347.6105 14.95384613156429
MOVE-II                 
1 43780U 18099Y   21288.73717305  .00001894  00000-0  17292-3 0  9999
2 43780  97.6561 356.8880 0013486  18.6378 341.5335 14.96171668156455
SNUSAT-2                
1 43782U 18099AA  21288.70747207  .00000402  00000-0  41158-4 0  9995
2 43782  97.6537 356.5590 0012775   7.9400 352.2021 14.95705978156448
SNUGLITE                
1 43784U 18099AC  21288.77218416  .00000455  00000-0  45729-4 0  9995
2 43784  97.6501 356.3179 0015246  14.2307 345.9341 14.95844895156474
ITASAT 1                
1 43786U 18099AE  21288.72386313  .00000786  00000-0  75544-4 0  9999
2 43786  97.6557 356.9536 0015234  13.9124 346.2514 14.95748167156460
KAZSCISAT-1             
1 43787U 18099AF  21288.73791769  .00001853  00000-0  16860-3 0  9997
2 43787  97.6475 356.1166 0013985  11.5879 348.5662 14.96324761156496
EAGLET-I                
1 43790U 18099AJ  21288.73056468  .00000795  00000-0  75673-4 0  9993
2 43790  97.6546 357.4194 0013675  18.2147 341.9561 14.96082428156195
ESEO                    
1 43792U 18099AL  21288.73579211  .00000763  00000-0  73334-4 0  9998
2 43792  97.6511 356.9162 0013489  16.1127 344.0520 14.95807397156240
CSIM-FD                 
1 43793U 18099AM  21289.08693641  .00001814  00000-0  16306-3 0  9995
2 43793  97.6558 357.8714 0012870  11.3537 348.7973 14.96844422156312
ASTROCAST 0.1           
1 43798U 18099AS  21288.72810435  .00000823  00000-0  77724-4 0  9993
2 43798  97.6553 357.6659 0011970 358.2079   1.9097 14.96340103156505
JY1SAT (JO-97)          
1 43803U 18099AX  21288.73369721  .00001324  00000-0  12287-3 0  9997
2 43803  97.6519 356.7032 0015110  14.1412 346.0229 14.96027407156473
SUOMI-100               
1 43804U 18099AY  21288.74180143  .00001409  00000-0  13046-3 0  9996
2 43804  97.6518 356.6671 0015260  14.5439 345.6219 14.95992371156485
AL-FARABI 2             
1 43805U 18099AZ  21288.92443678  .00001064  00000-0  99150-4 0  9990
2 43805  97.6533 357.1316 0015270  12.7475 347.4130 14.96249735156523
CENTAURI-1              
1 43809U 18099BD  21289.08918039  .00000714  00000-0  68732-4 0  9993
2 43809  97.6531 357.3273 0015442  14.2437 345.9217 14.95959490156237
CHOMPTT                 
1 43855U 18104G   21288.79548611  .00003752  00000-0  15042-3 0  9993
2 43855  85.0401 213.7172 0019280  65.7187 294.6068 15.24471819157428
DAVINCI                 
1 43857U 18104J   21288.77843749  .00008992  00000-0  33822-3 0  9990
2 43857  85.0347 213.2078 0017050  85.7076 274.6116 15.26839081157435
UWE-4                   
1 43880U 18111E   21288.70329780  .00001277  00000-0  11573-3 0  9999
2 43880  97.6771 194.3276 0013912  64.0999 296.1655 14.97043661153078
ZACUBE-2                
1 43907U 18111AH  21289.17726883  .00002238  00000-0  90674-4 0  9994
2 43907  97.2155 179.1679 0019624 222.6413 288.9070 15.25503496156035
MICRODRAGON             
1 43935U 19003D   21288.65627945  .00002294  00000-0  98150-4 0  9996
2 43935  97.1697 324.8565 0016573 326.7208  33.2986 15.23668240152408
AOBA VELOX-IV           
1 43940U 19003J   21288.68747136  .00006489  00000-0  23525-3 0  9993
2 43940  97.1662 328.2533 0020073 303.9823  55.9510 15.28493209152667
M6P                     
1 44109U 19018AF  21288.75869279  .00005237  00000-0  15563-3 0  9991
2 44109  97.4184   6.4152 0052685 284.3226  75.2171 15.33834894141898
SPOOQY-1                
1 44332U 98067QH  21287.49276533  .02648929  12113-4  64201-3 0  9993
2 44332  51.6139  21.7752 0010267 350.4237   9.6587 16.28458881133011
FORMOSAT 7-4            
1 44350U 19036M   21289.02884025  .00001725  00000-0  87630-4 0  9999
2 44350  23.9993 262.6090 0006158  50.1881 309.9163 15.08003713126582
PAINANI 1               
1 44365U 19037A   21288.76702722  .00009170  00000-0  21247-3 0  9992
2 44365  45.0043 306.5883 0004035 205.5618 154.5072 15.42812462129340
ACRUX 1                 
1 44369U 19037E   21288.68289837  .00021455  00000-0  37050-3 0  9993
2 44369  45.0040 277.4264 0008660 181.7544 178.3319 15.50652005129635
METEOR-M2 2             
1 44387U 19038A   21289.14243051 -.00000017  00000-0  11691-4 0  9990
2 44387  98.6849 247.3695 0000229 282.3340  77.7817 14.23692260118645
